#dP2018  4 25  0  0  0.00000000      96 __u+U ITR00 FIT  IAC
## 1998 259200.00000000   900.00000000 58233 0.0000000000000
+   87   C01C02C03C04C05C06C07C08C09C10C11C12C13C14E01E02E03
+        E04E05E07E08E09E11E12E14E18E19E24E26E30G01G02G03G04
+        G05G06G07G08G09G10G11G12G13G14G15G16G17G18G19G20G21
+        G22G23G24G25G26G27G28G29G30G31G32J01J02J03R01R02R03
+        R04R07R08R09R10R11R13R14R15R16R17R18R19R20R21R22R23
+        R24R26  0  0  0  0  0  0  0  0  0  0  0  0  0  0  0
++         0  0  0  0  0  0  0  0  0  0  0  0  0  0  0  0  0
++         0  0  0  0  0  0  0  0  0  0  0  0  0  0  0  0  0
++         0  0  0  0  0  0  0  0  0  0  0  0  0  0  0  0  0
++         0  0  0  0  0  0  0  0  0  0  0  0  0  0  0  0  0
++         0  0  0  0  0  0  0  0  0  0  0  0  0  0  0  0  0
++         0  0  0  0  0  0  0  0  0  0  0  0  0  0  0  0  0
%c M  cc GPS ccc cccc cccc cccc cccc ccccc ccccc ccccc ccccc
%c cc cc ccc ccc cccc cccc cccc cccc ccccc ccccc ccccc ccccc
%f  0.0000000  0.000000000  0.00000000000  0.000000000000000
%f  0.0000000  0.000000000  0.00000000000  0.000000000000000
%i    0    0    0    0      0      0      0      0         0
%i    0    0    0    0      0      0      0      0         0
/*                                                          
/*   RSA / INFORMATION & ANALYSIS CENTER (IAC) OF MCC       
/*   ULTRA-RAPID DETERMINATION                              
/* PCV:IGS14_1992 OL/AL:FES2004  NONE     YN ORB:CoN CLK:CoN
*  2018 04 25 16  0  0.00000000
PC01 -32269.015931  27122.325554   -895.298364   -379.902122
PC02   4368.581570  41922.770198   1265.380939    580.236654
PC03 -14804.318830  39527.055511   -177.361191    286.835516
PC04 -39596.972811  14463.214254   -251.440379   -202.362853
PC05  21944.959630  35988.241573   1604.516968     39.905924
PC06 -13761.487965  38080.853621  12593.075722      2.888456
PC07 -10796.409502  23329.061695 -33275.349867    174.898380
PC08 -25887.365463  25710.125690  21006.911517    305.289007
PC09  -4300.706071  41949.567396  -3549.800067   -187.586191
PC10   4241.467296  29671.838891 -29426.237433   -184.384560
PC11  -7895.420123  23161.028479  13408.765054   -482.391862
PC12 -19862.085675  18887.277828  -4945.649166    424.633291
PC13 -10937.675951  27358.835387  30082.705109   -304.062565
PC14   1277.165647  25578.038048  11212.337464    183.935544
PE01   7961.186105 -14067.626689  24790.142522   -329.979562
PE02  -7936.381170  14088.659923 -24799.581534     11.685400
PE03  -8404.312370  25829.858947  11759.040264    -24.999073
PE04  -4606.194898 -28495.522940   6553.136180    -21.552703
PE05 -16520.212300   8021.572665  23221.649957    277.650248
PE07  14945.274521  14442.808460 -21062.744771     44.046722
PE08   4816.496526  28458.328384  -6537.529373   6597.328911
PE09 -14955.675640 -14355.149913  21144.626686   6809.972170
PE11 -20461.927194  -4287.809850 -20964.662654   1832.134564
PE12  -1702.097764 -17557.923379 -23756.954702   4016.922694
PE14 -19824.573087  21010.471323  -9185.639277   6593.300652
PE18   9259.484114 -24911.083150  -4902.251717   6255.552061
PE19   9297.966408 -24729.170689 -13333.500201     21.697644
PE24 -25710.848324 -14647.462922   -307.813100   6740.240376
PE26  26839.697141 -10812.109193   6234.167894   6009.611337
PE30  12601.776540  20427.043401 -17342.545467   5891.675257
PG01  -9305.895050 -13600.111213 -21034.772264    -43.196989
PG02 -14813.379378  14555.637175  16975.083973    134.067426
PG03 -12315.185373 -23076.574462  -4810.739009     57.920462
PG04  15661.962468  -2159.604150  21142.472979     55.211529
PG05  -4360.366036  17451.288325  19374.487109     -9.164509
PG06 -24974.387384   6725.039111   6136.005946    407.057701
PG07 -23182.810671  -6547.868389  11890.232696    201.887311
PG08   3122.858482 -24267.084250 -10091.083416    -99.078839
PG09 -12607.406865  -9192.380176  21460.718859    512.265729
PG10  18350.065017   2772.519288 -19015.872983    181.293307
PG11  -4958.587618 -16186.513053 -21038.837836   -737.129938
PG12   9125.693162  23975.477634  -7454.170122    337.497069
PG13 -12077.787951  23511.345067  -2741.583014    -94.912889
PG14  17501.703534 -16784.501615 -10340.138778    -96.443597
PG15   -321.767625  24258.212416 -10560.618906   -355.048921
PG16   5573.391665 -16320.245625  19912.966962     26.688050
PG17 -17639.122297   9349.824151 -17067.709534   -103.808534
PG18    333.990482 -15805.510453 -21785.229561      1.272616
PG19 -18339.630263  14981.054651 -12507.140680   -441.076230
PG20  18860.493655  18655.180699  -2239.922919    506.659241
PG21  24624.579910   3743.750618  10010.805689   -403.022116
PG22  -6277.043078 -22565.296412 -12274.150506   -370.118898
PG23  -4054.503634 -20458.271647  16475.893474   -217.674576
PG24   5695.727512  14906.768845 -21374.500163    -48.943529
PG25  17816.082702  19154.199389   5105.022002   -575.218422
PG26  13211.036516  -7857.687200  21654.510399   -170.529839
PG27  12266.618430 -23264.108110   2420.722332    370.011165
PG28 -17904.956960  -7595.841468 -17446.671511    709.578672
PG29   9384.868101  12638.462877  21377.336048    460.445276
PG30 -26488.781877   -841.399723   2787.670728     80.966143
PG31  24711.889914  -6959.756325   7643.605065    126.018587
PG32  17594.977928  -8489.053385 -17922.998490   -516.986368
PJ01 -24977.107165  24036.132769  29112.729899   -289.072572
PJ02 -30646.993228  14999.000106 -20380.491337 999999.999999
PJ03 -23449.047427  31662.246579 -10436.811934    -15.936149
PR01   6312.054177  24458.857372  -3483.529742     25.330136
PR02  11453.105242  11251.330238 -19796.982488    306.619067
PR03   9390.479943  -8010.930065 -22273.754854    130.437972
PR04   1504.360411 -22770.189239 -11363.743851    258.538269
PR07  -9282.444987   8509.513669  22226.568580    -36.023403
PR08  -1925.138748  22442.642604  12028.009960    -13.783232
PR09 -23875.131785  -9079.040083     -8.200978     31.914755
PR10 -19743.230753    457.612143 -16219.239863     23.215396
PR11  -3837.359588  10307.442760 -23006.838412    -27.299055
PR13  24044.736878   8503.024674    276.412743     -9.780900
PR14  19883.525636   -585.527939  15966.303773     26.659504
PR15   7762.461898  -8302.216811  22846.392256     -9.277981
PR16 -13618.131044 -13370.545822  16835.106312     91.059905
PR17  20841.366197 -12763.317762   7364.455238    127.519329
PR18  15047.335054 -18135.785944  -9660.547274    193.222257
PR19   1068.265810 -13367.505839 -21694.126300    -50.927259
PR20 -14901.486937   -140.836839 -20710.564083   -335.663772
PR21 -20785.927971  12971.869741  -7064.847811     19.259318
PR22 -13914.106920  18142.835828  11457.892852    -37.821372
PR23   2547.701701  11276.159227  22733.773858    149.870228
PR24  15403.419379   -725.422067  20289.398588   -165.470762
PR26 -14503.765750   -394.135140 -20961.723968     15.025399
EOF
